{
  "norad_id": 65176,
  "name": "STARLINK-34707",
  "history": [
    {
      "epoch": "2026-03-28T21:04:25.135680Z",
      "apogee_km": 550.8102969650945,
      "perigee_km": 548.2045327948817,
      "latitude_deg": 8.685758867763241e-05,
      "longitude_deg": 179.11055655124565,
      "height_km": 551.5038161831566,
      "semi_major_axis_km": 6927.644414879987,
      "eccentricity": 0.00018807,
      "inclination_deg": 97.6013,
      "raan_deg": 321.5075,
      "arg_perigee_deg": 35.0292,
      "mean_anomaly_deg": 325.1059,
      "mean_motion_rev_day": 15.05651219
    },
    {
      "epoch": "2026-03-29T05:02:55.389984Z",
      "apogee_km": 550.6899978361116,
      "perigee_km": 548.3401382546299,
      "latitude_deg": 2.6625298241322948e-05,
      "longitude_deg": 59.48158049086473,
      "height_km": 552.1081481781537,
      "semi_major_axis_km": 6927.6520680453705,
      "eccentricity": 0.0001696,
      "inclination_deg": 97.6028,
      "raan_deg": 321.8321,
      "arg_perigee_deg": 66.447,
      "mean_anomaly_deg": 293.6935,
      "mean_motion_rev_day": 15.05648724
    },
    {
      "epoch": "2026-03-30T01:47:02.237280Z",
      "apogee_km": 550.5993984809083,
      "perigee_km": 548.4739881917931,
      "latitude_deg": -3.014791815554615e-05,
      "longitude_deg": 108.4528922571651,
      "height_km": 552.2621406702257,
      "semi_major_axis_km": 6927.67369333635,
      "eccentricity": 0.0001534,
      "inclination_deg": 97.6025,
      "raan_deg": 322.6835,
      "arg_perigee_deg": 71.4923,
      "mean_anomaly_deg": 288.647,
      "mean_motion_rev_day": 15.05641674
    },
    {
      "epoch": "2026-03-30T04:58:26.402592Z",
      "apogee_km": 550.6610368066567,
      "perigee_km": 548.4206257960132,
      "latitude_deg": -1.1245333875521765e-05,
      "longitude_deg": 60.60299057095721,
      "height_km": 552.1380507812596,
      "semi_major_axis_km": 6927.677831301335,
      "eccentricity": 0.0001617,
      "inclination_deg": 97.6026,
      "raan_deg": 322.8153,
      "arg_perigee_deg": 65.446,
      "mean_anomaly_deg": 294.6935,
      "mean_motion_rev_day": 15.05640325
    },
    {
      "epoch": "2026-03-30T14:32:38.681664Z",
      "apogee_km": 550.6179451578173,
      "perigee_km": 548.4645456520157,
      "latitude_deg": -6.149142109877942e-05,
      "longitude_deg": -82.94819421652038,
      "height_km": 552.1572310876194,
      "semi_major_axis_km": 6927.678245404916,
      "eccentricity": 0.00015542,
      "inclination_deg": 97.6025,
      "raan_deg": 323.2083,
      "arg_perigee_deg": 65.4798,
      "mean_anomaly_deg": 294.659,
      "mean_motion_rev_day": 15.0564019
    },
    {
      "epoch": "2026-03-31T09:41:02.755104Z",
      "apogee_km": 550.5821754828794,
      "perigee_km": 548.4319733150669,
      "latitude_deg": -4.4143136307996656e-05,
      "longitude_deg": -10.048354204044584,
      "height_km": 552.1519835615038,
      "semi_major_axis_km": 6927.644074398972,
      "eccentricity": 0.00015519,
      "inclination_deg": 97.6027,
      "raan_deg": 323.9945,
      "arg_perigee_deg": 67.1254,
      "mean_anomaly_deg": 293.0136,
      "mean_motion_rev_day": 15.0565133
    },
    {
      "epoch": "2026-04-01T09:36:32.763744Z",
      "apogee_km": 550.6066688736155,
      "perigee_km": 548.406449279254,
      "latitude_deg": -4.687771428094829e-06,
      "longitude_deg": -8.923059045116563,
      "height_km": 552.1387844351559,
      "semi_major_axis_km": 6927.643559076435,
      "eccentricity": 0.0001588,
      "inclination_deg": 97.6027,
      "raan_deg": 324.9774,
      "arg_perigee_deg": 66.9613,
      "mean_anomaly_deg": 293.1781,
      "mean_motion_rev_day": 15.05651498
    },
    {
      "epoch": "2026-04-02T14:19:08.649696Z",
      "apogee_km": 550.7792545857737,
      "perigee_km": 548.1816751411488,
      "latitude_deg": 2.160508208071351e-05,
      "longitude_deg": -79.57326268159262,
      "height_km": 552.1208469969005,
      "semi_major_axis_km": 6927.6174648634615,
      "eccentricity": 0.00018748,
      "inclination_deg": 97.6024,
      "raan_deg": 326.1558,
      "arg_perigee_deg": 71.0459,
      "mean_anomaly_deg": 289.0971,
      "mean_motion_rev_day": 15.05660005
    },
    {
      "epoch": "2026-04-02T22:17:38.538528Z",
      "apogee_km": 550.7322173631228,
      "perigee_km": 548.2014251351447,
      "latitude_deg": -6.848701683626969e-06,
      "longitude_deg": 160.8022841832447,
      "height_km": 552.1270071445315,
      "semi_major_axis_km": 6927.603821249134,
      "eccentricity": 0.00018266,
      "inclination_deg": 97.5999,
      "raan_deg": 326.4834,
      "arg_perigee_deg": 71.4666,
      "mean_anomaly_deg": 288.6759,
      "mean_motion_rev_day": 15.05664453
    },
    {
      "epoch": "2026-04-03T15:50:20.398848Z",
      "apogee_km": 550.6150832145313,
      "perigee_km": 548.3539075584367,
      "latitude_deg": 1.4514348371262697e-05,
      "longitude_deg": -102.37278260525248,
      "height_km": 552.3201116556857,
      "semi_major_axis_km": 6927.621495386484,
      "eccentricity": 0.0001632,
      "inclination_deg": 97.6028,
      "raan_deg": 327.2033,
      "arg_perigee_deg": 78.4197,
      "mean_anomaly_deg": 281.7213,
      "mean_motion_rev_day": 15.05658691
    }
  ]
}